GLOBALSTAR M094         
1 39074U 13005C   25273.57068359 -.00000094  00000+0  51798-4 0  9991
2 39074  51.9950 221.2545 0000624  85.9540 274.1398 12.62270068585688
GLOBALSTAR M096         
1 39075U 13005D   25273.66306731 -.00000079  00000+0  13712-3 0  9997
2 39075  52.0064 269.5719 0000560  90.2365 269.8566 12.62267246584612
GLOBALSTAR M078         
1 39076U 13005E   25273.55787189 -.00000086  00000+0  99710-4 0  9997
2 39076  51.9899 354.2608 0001285  72.0049 288.0957 12.62258744583224
GLOBALSTAR M095         
1 39077U 13005F   25273.66304775 -.00000080  00000+0  13439-3 0  9993
2 39077  52.0108 351.1753 0001031  99.6453 260.4531 12.62260148583098
GLOBALSTAR M087         
1 52888U 22064A   25273.75579889 -.00000096  00000+0  41275-4 0  9990
2 52888  51.9978 132.2814 0000981  87.4921 272.6058 12.62289032158371
